{
  "type": "FeatureCollection",
  "features": [
    {
      "type": "Feature",
      "properties": {
        "norad_id": 36744,
        "name": "COMS 1",
        "group": "weather",
        "lat": -1.67008322475386,
        "lon": -79.99346061633749,
        "alt_km": 35783.31607172353,
        "timestamp": "2025-12-22T04:03:38.803531+00:00",
        "meta_object_name": "COMS 1",
        "meta_object_id": "2010-032A",
        "meta_epoch": "2025-12-21T20:05:21.835392",
        "meta_mean_motion": 1.00271509,
        "meta_eccentricity": 7.4e-05,
        "meta_inclination": 4.3609,
        "meta_ra_of_asc_node": 77.8959,
        "meta_arg_of_pericenter": 208.2946,
        "meta_mean_anomaly": 233.9792,
        "meta_ephemeris_type": 0,
        "meta_classification_type": "U",
        "meta_norad_cat_id": 36744,
        "meta_element_set_no": 999,
        "meta_rev_at_epoch": 4931,
        "meta_bstar": 0,
        "meta_mean_motion_dot": -3.25e-06,
        "meta_mean_motion_ddot": 0,
        "tle_line1": "1 36744U 10032A   25355.83705828 -.00000325  00000+0  00000+0 0  9990",
        "tle_line2": "2 36744   4.3609  77.8959 0000740 208.2946 233.9792  1.00271509 49312"
      },
      "geometry": {
        "type": "Point",
        "coordinates": [
          -79.99346061633749,
          -1.67008322475386
        ]
      }
    },
    {
      "type": "Feature",
      "properties": {
        "norad_id": 37214,
        "name": "FENGYUN 3B",
        "group": "weather",
        "lat": 24.93616340127414,
        "lon": -139.56713242912386,
        "alt_km": 857.8257212729095,
        "timestamp": "2025-12-22T04:03:38.803543+00:00",
        "meta_object_name": "FENGYUN 3B",
        "meta_object_id": "2010-059A",
        "meta_epoch": "2025-12-21T21:21:25.328736",
        "meta_mean_motion": 14.14791213,
        "meta_eccentricity": 0.0021643,
        "meta_inclination": 98.9896,
        "meta_ra_of_asc_node": 35.9308,
        "meta_arg_of_pericenter": 331.7598,
        "meta_mean_anomaly": 201.018,
        "meta_ephemeris_type": 0,
        "meta_classification_type": "U",
        "meta_norad_cat_id": 37214,
        "meta_element_set_no": 999,
        "meta_rev_at_epoch": 78235,
        "meta_bstar": -8.1449e-05,
        "meta_mean_motion_dot": -2.03e-06,
        "meta_mean_motion_ddot": 0,
        "tle_line1": "1 37214U 10059A   25355.88987649 -.00000203  00000+0 -81449-4 0  9997",
        "tle_line2": "2 37214  98.9896  35.9308 0021643 331.7598 201.0180 14.14791213782358"
      },
      "geometry": {
        "type": "Point",
        "coordinates": [
          -139.56713242912386,
          24.93616340127414
        ]
      }
    },
    {
      "type": "Feature",
      "properties": {
        "norad_id": 37849,
        "name": "SUOMI NPP",
        "group": "weather",
        "lat": 24.131127263958618,
        "lon": 117.39455827435731,
        "alt_km": 825.3759367292296,
        "timestamp": "2025-12-22T04:03:38.803554+00:00",
        "meta_object_name": "SUOMI NPP",
        "meta_object_id": "2011-061A",
        "meta_epoch": "2025-12-17T23:31:21.474624",
        "meta_mean_motion": 14.19515682,
        "meta_eccentricity": 0.00023932,
        "meta_inclination": 98.7779,
        "meta_ra_of_asc_node": 289.2746,
        "meta_arg_of_pericenter": 111.1248,
        "meta_mean_anomaly": 249.0184,
        "meta_ephemeris_type": 0,
        "meta_classification_type": "U",
        "meta_norad_cat_id": 37849,
        "meta_element_set_no": 999,
        "meta_rev_at_epoch": 73273,
        "meta_bstar": 4.8615036e-05,
        "meta_mean_motion_dot": 5.8e-07,
        "meta_mean_motion_ddot": 0,
        "tle_line1": "1 37849U 11061A   25351.98010966  .00000058  00000+0  48615-4 0  9995",
        "tle_line2": "2 37849  98.7779 289.2746 0002393 111.1248 249.0184 14.19515682732735"
      },
      "geometry": {
        "type": "Point",
        "coordinates": [
          117.39455827435731,
          24.131127263958618
        ]
      }
    },
    {
      "type": "Feature",
      "properties": {
        "norad_id": 38552,
        "name": "METEOSAT-10 (MSG-3)",
        "group": "weather",
        "lat": 4.265269284726337,
        "lon": 152.20934413984773,
        "alt_km": 35787.049506774325,
        "timestamp": "2025-12-22T04:03:38.803566+00:00",
        "meta_object_name": "METEOSAT-10 (MSG-3)",
        "meta_object_id": "2012-035B",
        "meta_epoch": "2025-12-21T08:03:51.374592",
        "meta_mean_motion": 1.00276748,
        "meta_eccentricity": 7.023e-05,
        "meta_inclination": 4.2476,
        "meta_ra_of_asc_node": 61.6997,
        "meta_arg_of_pericenter": 268.1719,
        "meta_mean_anomaly": 241.5558,
        "meta_ephemeris_type": 0,
        "meta_classification_type": "U",
        "meta_norad_cat_id": 38552,
        "meta_element_set_no": 999,
        "meta_rev_at_epoch": 4907,
        "meta_bstar": 0,
        "meta_mean_motion_dot": 1.6e-07,
        "meta_mean_motion_ddot": 0,
        "tle_line1": "1 38552U 12035B   25355.33601128  .00000016  00000+0  00000+0 0  9993",
        "tle_line2": "2 38552   4.2476  61.6997 0000702 268.1719 241.5558  1.00276748 49074"
      },
      "geometry": {
        "type": "Point",
        "coordinates": [
          152.20934413984773,
          4.265269284726337
        ]
      }
    },
    {
      "type": "Feature",
      "properties": {
        "norad_id": 38771,
        "name": "METOP-B",
        "group": "weather",
        "lat": 69.86161650015121,
        "lon": 21.353492093798963,
        "alt_km": 812.3711540439663,
        "timestamp": "2025-12-22T04:03:38.803578+00:00",
        "meta_object_name": "METOP-B",
        "meta_object_id": "2012-049A",
        "meta_epoch": "2025-12-21T19:16:38.436096",
        "meta_mean_motion": 14.21411605,
        "meta_eccentricity": 0.0003192,
        "meta_inclination": 98.6785,
        "meta_ra_of_asc_node": 45.6078,
        "meta_arg_of_pericenter": 124.9401,
        "meta_mean_anomaly": 235.2076,
        "meta_ephemeris_type": 0,
        "meta_classification_type": "U",
        "meta_norad_cat_id": 38771,
        "meta_element_set_no": 999,
        "meta_rev_at_epoch": 68806,
        "meta_bstar": 7.4969e-05,
        "meta_mean_motion_dot": 1.2e-06,
        "meta_mean_motion_ddot": 0,
        "tle_line1": "1 38771U 12049A   25355.80322264  .00000120  00000+0  74969-4 0  9990",
        "tle_line2": "2 38771  98.6785  45.6078 0003192 124.9401 235.2076 14.21411605688065"
      },
      "geometry": {
        "type": "Point",
        "coordinates": [
          21.353492093798963,
          69.86161650015121
        ]
      }
    },
    {
      "type": "Feature",
      "properties": {
        "norad_id": 39216,
        "name": "INSAT-3D",
        "group": "weather",
        "lat": -0.4430405332713833,
        "lon": -78.60440273492392,
        "alt_km": 35779.3521907403,
        "timestamp": "2025-12-22T04:03:38.803590+00:00",
        "meta_object_name": "INSAT-3D",
        "meta_object_id": "2013-038B",
        "meta_epoch": "2025-12-21T17:14:17.039328",
        "meta_mean_motion": 1.00276409,
        "meta_eccentricity": 0.0001809,
        "meta_inclination": 1.4667,
        "meta_ra_of_asc_node": 84.896,
        "meta_arg_of_pericenter": 152.8717,
        "meta_mean_anomaly": 240.8316,
        "meta_ephemeris_type": 0,
        "meta_classification_type": "U",
        "meta_norad_cat_id": 39216,
        "meta_element_set_no": 999,
        "meta_rev_at_epoch": 4530,
        "meta_bstar": 0,
        "meta_mean_motion_dot": -3.17e-06,
        "meta_mean_motion_ddot": 0,
        "tle_line1": "1 39216U 13038B   25355.71825277 -.00000317  00000+0  00000+0 0  9995",
        "tle_line2": "2 39216   1.4667  84.8960 0001809 152.8717 240.8316  1.00276409 45306"
      },
      "geometry": {
        "type": "Point",
        "coordinates": [
          -78.60440273492392,
          -0.4430405332713833
        ]
      }
    },
    {
      "type": "Feature",
      "properties": {
        "norad_id": 39260,
        "name": "FENGYUN 3C",
        "group": "weather",
        "lat": 54.155316752464664,
        "lon": 165.30286325690102,
        "alt_km": 827.0712243247372,
        "timestamp": "2025-12-22T04:03:38.803604+00:00",
        "meta_object_name": "FENGYUN 3C",
        "meta_object_id": "2013-052A",
        "meta_epoch": "2025-12-21T20:41:15.033120",
        "meta_mean_motion": 14.15698842,
        "meta_eccentricity": 0.0014785,
        "meta_inclination": 98.4773,
        "meta_ra_of_asc_node": 333.0963,
        "meta_arg_of_pericenter": 169.5568,
        "meta_mean_anomaly": 190.5917,
        "meta_ephemeris_type": 0,
        "meta_classification_type": "U",
        "meta_norad_cat_id": 39260,
        "meta_element_set_no": 999,
        "meta_rev_at_epoch": 63347,
        "meta_bstar": 5.3405e-05,
        "meta_mean_motion_dot": 6.4e-07,
        "meta_mean_motion_ddot": 0,
        "tle_line1": "1 39260U 13052A   25355.86197955  .00000064  00000+0  53405-4 0  9991",
        "tle_line2": "2 39260  98.4773 333.0963 0014785 169.5568 190.5917 14.15698842633475"
      },
      "geometry": {
        "type": "Point",
        "coordinates": [
          165.30286325690102,
          54.155316752464664
        ]
      }
    }
  ]
}